[{"OBJECT_NAME":"OBJECT B","OBJECT_ID":"2024-166B","EPOCH":"2026-03-08T16:09:42.851232","MEAN_MOTION":15.75502359,"ECCENTRICITY":0.0002182,"INCLINATION":96.6921,"RA_OF_ASC_NODE":322.5475,"ARG_OF_PERICENTER":351.2198,"MEAN_ANOMALY":8.9031,"EPHEMERIS_TYPE":0,"CLASSIFICATION_TYPE":"U","NORAD_CAT_ID":61180,"ELEMENT_SET_NO":999,"REV_AT_EPOCH":8491,"BSTAR":0.00025198,"MEAN_MOTION_DOT":0.00038147,"MEAN_MOTION_DDOT":0},{"OBJECT_NAME":"STARLINK-36605","OBJECT_ID":"2026-018R","EPOCH":"2026-03-09T17:35:43.837728","MEAN_MOTION":15.75203927,"ECCENTRICITY":0.00024065,"INCLINATION":97.2842,"RA_OF_ASC_NODE":134.5288,"ARG_OF_PERICENTER":54.4969,"MEAN_ANOMALY":305.6521,"EPHEMERIS_TYPE":0,"CLASSIFICATION_TYPE":"U","NORAD_CAT_ID":67604,"ELEMENT_SET_NO":999,"REV_AT_EPOCH":731,"BSTAR":0.002143998,"MEAN_MOTION_DOT":0.00332643,"MEAN_MOTION_DDOT":0}]
